[
  {
    "COMMENT": "GENERATED VIA SPACETRACK.ORG API",
    "ORIGINATOR": "18 SPCS",
    "NORAD_CAT_ID": "39086",
    "OBJECT_NAME": "SARAL",
    "OBJECT_TYPE": "PAYLOAD",
    "CLASSIFICATION_TYPE": "U",
    "INTLDES": "13009A",
    "EPOCH": "2023-04-21 20:38:14",
    "EPOCH_MICROSECONDS": "669664",
    "MEAN_MOTION": "14.32178274",
    "ECCENTRICITY": "0.000302",
    "INCLINATION": "98.5484",
    "RA_OF_ASC_NODE": "297.9693",
    "ARG_OF_PERICENTER": "92.6231",
    "MEAN_ANOMALY": "267.5299",
    "EPHEMERIS_TYPE": "0",
    "ELEMENT_SET_NO": "999",
    "REV_AT_EPOCH": "53062",
    "BSTAR": "0.00010114",
    "MEAN_MOTION_DOT": "0.00000229",
    "MEAN_MOTION_DDOT": "0",
    "FILE": "3891716",
    "TLE_LINE0": "0 SARAL",
    "TLE_LINE1": "1 39086U 13009A   23111.85989201  .00000229  00000-0  10114-3 0  9992",
    "TLE_LINE2": "2 39086  98.5484 297.9693 0003020  92.6231 267.5299 14.32178274530624",
    "OBJECT_ID": "2013-009A",
    "OBJECT_NUMBER": "39086",
    "SEMIMAJOR_AXIS": "7162.596",
    "PERIOD": "100.546",
    "APOGEE": "786.624",
    "PERIGEE": "782.298",
    "DECAYED": "0"
  },
  {
    "COMMENT": "GENERATED VIA SPACETRACK.ORG API",
    "ORIGINATOR": "18 SPCS",
    "NORAD_CAT_ID": "39086",
    "OBJECT_NAME": "SARAL",
    "OBJECT_TYPE": "PAYLOAD",
    "CLASSIFICATION_TYPE": "U",
    "INTLDES": "13009A",
    "EPOCH": "2023-04-22 11:43:40",
    "EPOCH_MICROSECONDS": "681920",
    "MEAN_MOTION": "14.32178606",
    "ECCENTRICITY": "0.0003024",
    "INCLINATION": "98.5483",
    "RA_OF_ASC_NODE": "298.5889",
    "ARG_OF_PERICENTER": "91.4868",
    "MEAN_ANOMALY": "268.6662",
    "EPHEMERIS_TYPE": "0",
    "ELEMENT_SET_NO": "999",
    "REV_AT_EPOCH": "53071",
    "BSTAR": "0.000098333",
    "MEAN_MOTION_DOT": "0.00000221",
    "MEAN_MOTION_DDOT": "0",
    "FILE": "3891887",
    "TLE_LINE0": "0 SARAL",
    "TLE_LINE1": "1 39086U 13009A   23112.48866530  .00000221  00000-0  98333-4 0  9993",
    "TLE_LINE2": "2 39086  98.5483 298.5889 0003024  91.4868 268.6662 14.32178606530719",
    "OBJECT_ID": "2013-009A",
    "OBJECT_NUMBER": "39086",
    "SEMIMAJOR_AXIS": "7162.595",
    "PERIOD": "100.546",
    "APOGEE": "786.626",
    "PERIGEE": "782.294",
    "DECAYED": "0"
  },
  {
    "COMMENT": "GENERATED VIA SPACETRACK.ORG API",
    "ORIGINATOR": "18 SPCS",
    "NORAD_CAT_ID": "39086",
    "OBJECT_NAME": "SARAL",
    "OBJECT_TYPE": "PAYLOAD",
    "CLASSIFICATION_TYPE": "U",
    "INTLDES": "13009A",
    "EPOCH": "2023-04-22 13:24:16",
    "EPOCH_MICROSECONDS": "904736",
    "MEAN_MOTION": "14.32178649",
    "ECCENTRICITY": "0.0003024",
    "INCLINATION": "98.5483",
    "RA_OF_ASC_NODE": "298.6578",
    "ARG_OF_PERICENTER": "91.3976",
    "MEAN_ANOMALY": "268.7555",
    "EPHEMERIS_TYPE": "0",
    "ELEMENT_SET_NO": "999",
    "REV_AT_EPOCH": "53072",
    "BSTAR": "0.000098667",
    "MEAN_MOTION_DOT": "0.00000222",
    "MEAN_MOTION_DDOT": "0",
    "FILE": "3892071",
    "TLE_LINE0": "0 SARAL",
    "TLE_LINE1": "1 39086U 13009A   23112.55852899  .00000222  00000-0  98667-4 0  9995",
    "TLE_LINE2": "2 39086  98.5483 298.6578 0003024  91.3976 268.7555 14.32178649530724",
    "OBJECT_ID": "2013-009A",
    "OBJECT_NUMBER": "39086",
    "SEMIMAJOR_AXIS": "7162.595",
    "PERIOD": "100.546",
    "APOGEE": "786.626",
    "PERIGEE": "782.294",
    "DECAYED": "0"
  },
  {
    "COMMENT": "GENERATED VIA SPACETRACK.ORG API",
    "ORIGINATOR": "18 SPCS",
    "NORAD_CAT_ID": "39086",
    "OBJECT_NAME": "SARAL",
    "OBJECT_TYPE": "PAYLOAD",
    "CLASSIFICATION_TYPE": "U",
    "INTLDES": "13009A",
    "EPOCH": "2023-04-22 20:06:41",
    "EPOCH_MICROSECONDS": "797728",
    "MEAN_MOTION": "14.32178706",
    "ECCENTRICITY": "0.0003028",
    "INCLINATION": "98.5484",
    "RA_OF_ASC_NODE": "298.9332",
    "ARG_OF_PERICENTER": "90.876",
    "MEAN_ANOMALY": "269.277",
    "EPHEMERIS_TYPE": "0",
    "ELEMENT_SET_NO": "999",
    "REV_AT_EPOCH": "53076",
    "BSTAR": "0.000091055",
    "MEAN_MOTION_DOT": "0.00000202",
    "MEAN_MOTION_DDOT": "0",
    "FILE": "3892285",
    "TLE_LINE0": "0 SARAL",
    "TLE_LINE1": "1 39086U 13009A   23112.83798377  .00000202  00000-0  91055-4 0  9998",
    "TLE_LINE2": "2 39086  98.5484 298.9332 0003028  90.8760 269.2770 14.32178706530768",
    "OBJECT_ID": "2013-009A",
    "OBJECT_NUMBER": "39086",
    "SEMIMAJOR_AXIS": "7162.595",
    "PERIOD": "100.546",
    "APOGEE": "786.628",
    "PERIGEE": "782.291",
    "DECAYED": "0"
  },
  {
    "COMMENT": "GENERATED VIA SPACETRACK.ORG API",
    "ORIGINATOR": "18 SPCS",
    "NORAD_CAT_ID": "39086",
    "OBJECT_NAME": "SARAL",
    "OBJECT_TYPE": "PAYLOAD",
    "CLASSIFICATION_TYPE": "U",
    "INTLDES": "13009A",
    "EPOCH": "2023-04-23 12:52:44",
    "EPOCH_MICROSECONDS": "8608",
    "MEAN_MOTION": "14.32179229",
    "ECCENTRICITY": "0.0003025",
    "INCLINATION": "98.5483",
    "RA_OF_ASC_NODE": "299.6217",
    "ARG_OF_PERICENTER": "89.6902",
    "MEAN_ANOMALY": "270.4628",
    "EPHEMERIS_TYPE": "0",
    "ELEMENT_SET_NO": "999",
    "REV_AT_EPOCH": "53086",
    "BSTAR": "0.000097636",
    "MEAN_MOTION_DOT": "0.00000219",
    "MEAN_MOTION_DDOT": "0",
    "FILE": "3892688",
    "TLE_LINE0": "0 SARAL",
    "TLE_LINE1": "1 39086U 13009A   23113.53662047  .00000219  00000-0  97636-4 0  9999",
    "TLE_LINE2": "2 39086  98.5483 299.6217 0003025  89.6902 270.4628 14.32179229530866",
    "OBJECT_ID": "2013-009A",
    "OBJECT_NUMBER": "39086",
    "SEMIMAJOR_AXIS": "7162.593",
    "PERIOD": "100.546",
    "APOGEE": "786.624",
    "PERIGEE": "782.291",
    "DECAYED": "0"
  },
  {
    "COMMENT": "GENERATED VIA SPACETRACK.ORG API",
    "ORIGINATOR": "18 SPCS",
    "NORAD_CAT_ID": "39086",
    "OBJECT_NAME": "SARAL",
    "OBJECT_TYPE": "PAYLOAD",
    "CLASSIFICATION_TYPE": "U",
    "INTLDES": "13009A",
    "EPOCH": "2023-04-23 17:54:32",
    "EPOCH_MICROSECONDS": "669280",
    "MEAN_MOTION": "14.32179317",
    "ECCENTRICITY": "0.0003027",
    "INCLINATION": "98.5484",
    "RA_OF_ASC_NODE": "299.8283",
    "ARG_OF_PERICENTER": "89.3132",
    "MEAN_ANOMALY": "270.8398",
    "EPHEMERIS_TYPE": "0",
    "ELEMENT_SET_NO": "999",
    "REV_AT_EPOCH": "53089",
    "BSTAR": "0.000095137",
    "MEAN_MOTION_DOT": "0.00000213",
    "MEAN_MOTION_DDOT": "0",
    "FILE": "3892724",
    "TLE_LINE0": "0 SARAL",
    "TLE_LINE1": "1 39086U 13009A   23113.74621145  .00000213  00000-0  95137-4 0  9994",
    "TLE_LINE2": "2 39086  98.5484 299.8283 0003027  89.3132 270.8398 14.32179317530895",
    "OBJECT_ID": "2013-009A",
    "OBJECT_NUMBER": "39086",
    "SEMIMAJOR_AXIS": "7162.592",
    "PERIOD": "100.546",
    "APOGEE": "786.626",
    "PERIGEE": "782.289",
    "DECAYED": "0"
  },
  {
    "COMMENT": "GENERATED VIA SPACETRACK.ORG API",
    "ORIGINATOR": "18 SPCS",
    "NORAD_CAT_ID": "39086",
    "OBJECT_NAME": "SARAL",
    "OBJECT_TYPE": "PAYLOAD",
    "CLASSIFICATION_TYPE": "U",
    "INTLDES": "13009A",
    "EPOCH": "2023-04-23 21:15:45",
    "EPOCH_MICROSECONDS": "101952",
    "MEAN_MOTION": "14.32179504",
    "ECCENTRICITY": "0.0003028",
    "INCLINATION": "98.5484",
    "RA_OF_ASC_NODE": "299.966",
    "ARG_OF_PERICENTER": "89.0631",
    "MEAN_ANOMALY": "271.09",
    "EPHEMERIS_TYPE": "0",
    "ELEMENT_SET_NO": "999",
    "REV_AT_EPOCH": "53091",
    "BSTAR": "0.000099403",
    "MEAN_MOTION_DOT": "0.00000224",
    "MEAN_MOTION_DDOT": "0",
    "FILE": "3892831",
    "TLE_LINE0": "0 SARAL",
    "TLE_LINE1": "1 39086U 13009A   23113.88593868  .00000224  00000-0  99403-4 0  9991",
    "TLE_LINE2": "2 39086  98.5484 299.9660 0003028  89.0631 271.0900 14.32179504530910",
    "OBJECT_ID": "2013-009A",
    "OBJECT_NUMBER": "39086",
    "SEMIMAJOR_AXIS": "7162.592",
    "PERIOD": "100.546",
    "APOGEE": "786.626",
    "PERIGEE": "782.288",
    "DECAYED": "0"
  },
  {
    "COMMENT": "GENERATED VIA SPACETRACK.ORG API",
    "ORIGINATOR": "18 SPCS",
    "NORAD_CAT_ID": "39086",
    "OBJECT_NAME": "SARAL",
    "OBJECT_TYPE": "PAYLOAD",
    "CLASSIFICATION_TYPE": "U",
    "INTLDES": "13009A",
    "EPOCH": "2023-04-24 14:01:47",
    "EPOCH_MICROSECONDS": "185824",
    "MEAN_MOTION": "14.32181322",
    "ECCENTRICITY": "0.0003026",
    "INCLINATION": "98.5484",
    "RA_OF_ASC_NODE": "300.6545",
    "ARG_OF_PERICENTER": "87.7918",
    "MEAN_ANOMALY": "272.3612",
    "EPHEMERIS_TYPE": "0",
    "ELEMENT_SET_NO": "999",
    "REV_AT_EPOCH": "53101",
    "BSTAR": "0.00017255",
    "MEAN_MOTION_DOT": "0.00000421",
    "MEAN_MOTION_DDOT": "0",
    "FILE": "3893330",
    "TLE_LINE0": "0 SARAL",
    "TLE_LINE1": "1 39086U 13009A   23114.58457391  .00000421  00000-0  17255-3 0  9992",
    "TLE_LINE2": "2 39086  98.5484 300.6545 0003026  87.7918 272.3612 14.32181322531010",
    "OBJECT_ID": "2013-009A",
    "OBJECT_NUMBER": "39086",
    "SEMIMAJOR_AXIS": "7162.586",
    "PERIOD": "100.546",
    "APOGEE": "786.618",
    "PERIGEE": "782.283",
    "DECAYED": "0"
  },
  {
    "COMMENT": "GENERATED VIA SPACETRACK.ORG API",
    "ORIGINATOR": "18 SPCS",
    "NORAD_CAT_ID": "39086",
    "OBJECT_NAME": "SARAL",
    "OBJECT_TYPE": "PAYLOAD",
    "CLASSIFICATION_TYPE": "U",
    "INTLDES": "13009A",
    "EPOCH": "2023-04-24 19:03:35",
    "EPOCH_MICROSECONDS": "821440",
    "MEAN_MOTION": "14.32181479",
    "ECCENTRICITY": "0.0003027",
    "INCLINATION": "98.5484",
    "RA_OF_ASC_NODE": "300.861",
    "ARG_OF_PERICENTER": "87.4618",
    "MEAN_ANOMALY": "272.6912",
    "EPHEMERIS_TYPE": "0",
    "ELEMENT_SET_NO": "999",
    "REV_AT_EPOCH": "53104",
    "BSTAR": "0.00017141",
    "MEAN_MOTION_DOT": "0.00000418",
    "MEAN_MOTION_DDOT": "0",
    "FILE": "3893382",
    "TLE_LINE0": "0 SARAL",
    "TLE_LINE1": "1 39086U 13009A   23114.79416460  .00000418  00000-0  17141-3 0  9997",
    "TLE_LINE2": "2 39086  98.5484 300.8610 0003027  87.4618 272.6912 14.32181479531042",
    "OBJECT_ID": "2013-009A",
    "OBJECT_NUMBER": "39086",
    "SEMIMAJOR_AXIS": "7162.585",
    "PERIOD": "100.546",
    "APOGEE": "786.618",
    "PERIGEE": "782.282",
    "DECAYED": "0"
  }
]